ARIRANG-3 (KOMPSAT-3)   
1 38338U 12025B   17346.33523149  .00000080  00000-0  25530-4 0  9993
2 38338  98.1560 281.8414 0010839 126.2730 233.9478 14.61614814297208
